[{"OBJECT_NAME":"LYNK TOWER 4","OBJECT_ID":"2023-001AB","EPOCH":"2026-03-09T16:15:30.644928","MEAN_MOTION":15.31819885,"ECCENTRICITY":0.00103213,"INCLINATION":97.3324,"RA_OF_ASC_NODE":128.594,"ARG_OF_PERICENTER":112.3386,"MEAN_ANOMALY":247.895,"EPHEMERIS_TYPE":0,"CLASSIFICATION_TYPE":"U","NORAD_CAT_ID":55034,"ELEMENT_SET_NO":999,"REV_AT_EPOCH":17658,"BSTAR":0.00030013829,"MEAN_MOTION_DOT":9.16e-5,"MEAN_MOTION_DDOT":0},{"OBJECT_NAME":"STARLINK-33741","OBJECT_ID":"2025-063C","EPOCH":"2026-03-09T22:22:49.256256","MEAN_MOTION":15.30211764,"ECCENTRICITY":0.00015811,"INCLINATION":53.1612,"RA_OF_ASC_NODE":51.5514,"ARG_OF_PERICENTER":84.6229,"MEAN_ANOMALY":275.4952,"EPHEMERIS_TYPE":0,"CLASSIFICATION_TYPE":"U","NORAD_CAT_ID":63365,"ELEMENT_SET_NO":999,"REV_AT_EPOCH":5479,"BSTAR":0.00098247916,"MEAN_MOTION_DOT":0.00028863,"MEAN_MOTION_DDOT":0}]
